OBJECT_NAME,OBJECT_ID,EPOCH,MEAN_MOTION,ECCENTRICITY,INCLINATION,RA_OF_ASC_NODE,ARG_OF_PERICENTER,MEAN_ANOMALY,EPHEMERIS_TYPE,CLASSIFICATION_TYPE,NORAD_CAT_ID,ELEMENT_SET_NO,REV_AT_EPOCH,BSTAR,MEAN_MOTION_DOT,MEAN_MOTION_DDOT
CONNECTA IOT-1,2024-149E,2026-06-16T04:13:55.524576,15.23534126,.00003431,97.3761,243.4846,306.6392,53.4814,0,U,60472,999,10164,.14791002E-3,.3463E-4,0
LOPEN,2024-149F,2026-06-16T11:31:51.115008,15.39670898,.00007488,97.3782,250.8424,184.2413,175.8826,0,U,60473,999,10215,.32581776E-3,.12782E-3,0
ROCK,2024-149G,2026-06-16T04:58:09.676416,15.39660023,.0001021,97.3780,250.5827,194.2356,165.8861,0,U,60474,999,10211,.31320713E-3,.12279E-3,0
CONNECTA IOT-3,2024-149H,2026-06-16T11:03:01.536480,15.23548260,.00013611,97.3736,243.5172,257.7715,102.3370,0,U,60475,999,10169,.14395917E-3,.337E-4,0
QUBE,2024-149J,2026-06-16T04:52:46.228512,15.47152637,.00018635,97.3784,253.6177,197.3639,162.7548,0,U,60476,999,10231,.41310264E-3,.20901E-3,0
WREN-1,2024-149L,2026-06-16T11:38:41.852832,15.41533197,.00032015,97.3769,251.5900,251.8626,108.2272,0,U,60478,999,10221,.41682115E-3,.17427E-3,0
TOMORROW-S1,2024-149M,2026-06-16T11:36:16.171200,15.32713731,.00014675,97.3752,247.9577,215.9575,144.1568,0,U,60479,999,10198,.20842954E-3,.6506E-4,0
FLOCK 4BE-18,2024-149N,2026-06-16T04:08:04.440768,15.41830749,.00027967,97.3732,250.8909,239.6217,120.4754,0,U,60480,999,10215,.34799834E-3,.14675E-3,0
FLOCK 4BE-7,2024-149P,2026-06-16T12:05:09.420864,15.40294566,.00020146,97.3764,250.5664,238.4144,121.6906,0,U,60481,999,10214,.48760559E-3,.19586E-3,0
TOMORROW-S2,2024-149T,2026-06-16T04:30:10.815552,15.32738900,.00012665,97.3822,248.1507,268.8559,91.2538,0,U,60485,999,10193,.21495831E-3,.6718E-4,0
FLOCK 4BE-36,2024-149U,2026-06-16T05:01:13.421568,15.42697574,.00023538,97.3749,251.6254,257.5031,102.5953,0,U,60486,999,10220,.29672105E-3,.12864E-3,0
FLOCK 4BE-25,2024-149V,2026-06-16T04:15:29.926944,15.38814793,.00012269,97.3804,250.3206,222.9910,137.1240,0,U,60487,999,10208,.30099818E-3,.11474E-3,0
FLOCK 4BE-31,2024-149W,2026-06-16T04:13:43.196160,15.44057891,.00012666,97.3803,252.4474,256.9567,103.1540,0,U,60488,999,10222,.37328804E-3,.16973E-3,0
FLOCK 4BE-20,2024-149X,2026-06-16T12:44:15.683712,15.38040214,.00025018,97.3701,249.5571,252.3872,107.7100,0,U,60489,999,10211,.29380859E-3,.10918E-3,0
FLOCK 4BE-23,2024-149Y,2026-06-16T04:41:25.175328,15.37651236,.0001989,97.3787,249.5964,263.8916,96.2102,0,U,60490,999,10204,.30013844E-3,.11015E-3,0
FLOCK 4BE-15,2024-149Z,2026-06-16T04:31:42.745152,15.59566831,.00030271,97.3689,252.5311,240.8572,119.2381,0,U,60491,999,10227,.95872229E-3,.76671E-3,0
FLOCK 4BE-17,2024-149AA,2026-06-16T04:20:35.131488,15.39759167,.00019951,97.3779,250.5419,240.1440,119.9607,0,U,60492,999,10210,.32669072E-3,.12854E-3,0
NUSAT-50 (NANCY ROMAN),2024-149AB,2026-06-16T04:29:42.873792,15.29841839,.0003367,97.3793,248.4498,176.8151,183.3112,0,U,60493,999,10197,.27308417E-3,.7818E-4,0
FLOCK 4BE-22,2024-149AC,2026-06-16T05:28:48.817056,15.41142714,.0002331,97.3738,250.7799,258.8950,101.2034,0,U,60494,999,10215,.33362E-3,.13745E-3,0
FLOCK 4BE-34,2024-149AD,2026-06-16T12:07:30.141408,15.41140204,.00021616,97.3788,251.8812,271.2391,88.8608,0,U,60495,999,10222,.30710032E-3,.12642E-3,0
TYCHE,2024-149AE,2026-06-16T13:05:26.151648,15.25983953,.00006289,97.3757,245.3703,252.3904,107.7266,0,U,60496,999,10180,.14637504E-3,.3689E-4,0
FLOCK 4BE-32,2024-149AF,2026-06-16T05:09:09.730080,15.42127248,.0002384,97.3727,251.1310,263.6017,96.4959,0,U,60497,999,10218,.31662E-3,.13474E-3,0
NUSAT-48 (HENRIETTA LEAVITT),2024-149AG,2026-06-16T12:04:16.375584,15.29850977,.00024031,97.3925,249.0054,280.5427,79.5543,0,U,60498,999,10203,.27010271E-3,.7733E-4,0
FLOCK 4BE-30,2024-149AH,2026-06-16T11:39:02.357280,15.56356680,.00041005,97.3780,252.9813,234.5246,125.5627,0,U,60499,999,10166,.16012045E-2,.114194E-2,0
NUSAT-49 (KLARA DAN VON NEUMANN),2024-149AJ,2026-06-16T11:32:44.892096,15.29936428,.00009894,97.3784,248.7732,345.2280,14.8932,0,U,60500,999,10202,.25546654E-3,.7329E-4,0
FLOCK 4BE-11,2024-149AK,2026-06-16T12:49:03.616032,15.42959623,.00025179,97.3704,251.6834,261.6294,98.4669,0,U,60501,999,10225,.3015008E-3,.13189E-3,0
YAM-7,2024-149AN,2026-06-16T11:15:54.579744,15.31811279,.00019908,97.3786,247.7216,311.5328,48.5743,0,U,60504,999,10194,.20317027E-3,.6162E-4,0
FLOCK 4BE-24,2024-149AP,2026-06-16T04:42:52.682976,15.43040650,.00027059,97.3723,251.5970,279.2650,80.8292,0,U,60505,999,10221,.37633779E-3,.16536E-3,0
LUR-1,2024-149AQ,2026-06-16T11:00:49.415328,15.30098237,.00028598,97.3742,246.2921,323.7303,36.3743,0,U,60506,999,10186,.2001794E-3,.5755E-4,0
