CONNECTA IOT-1          
1 60472U 24149E   26167.17633709  .00003463  00000+0  14791-3 0  9997
2 60472  97.3761 243.4846 0000343 306.6392  53.4814 15.23534126101643
LOPEN                   
1 60473U 24149F   26167.48045272  .00012782  00000+0  32582-3 0  9996
2 60473  97.3782 250.8424 0000748 184.2413 175.8826 15.39670898102157
ROCK                    
1 60474U 24149G   26167.20705644  .00012279  00000+0  31321-3 0  9994
2 60474  97.3780 250.5827 0001021 194.2356 165.8861 15.39660023102115
CONNECTA IOT-3          
1 60475U 24149H   26167.46043445  .00003370  00000+0  14396-3 0  9992
2 60475  97.3736 243.5172 0001361 257.7715 102.3370 15.23548260101697
QUBE                    
1 60476U 24149J   26167.20331283  .00020901  00000+0  41310-3 0  9990
2 60476  97.3784 253.6177 0001863 197.3639 162.7548 15.47152637102311
WREN-1                  
1 60478U 24149L   26167.48520663  .00017427  00000+0  41682-3 0  9995
2 60478  97.3769 251.5900 0003201 251.8626 108.2272 15.41533197102213
TOMORROW-S1             
1 60479U 24149M   26167.48352050  .00006506  00000+0  20843-3 0  9991
2 60479  97.3752 247.9577 0001467 215.9575 144.1568 15.32713731101985
FLOCK 4BE-18            
1 60480U 24149N   26167.17227362  .00014675  00000+0  34800-3 0  9990
2 60480  97.3732 250.8909 0002796 239.6217 120.4754 15.41830749102152
FLOCK 4BE-7             
1 60481U 24149P   26167.50358126  .00019586  00000+0  48761-3 0  9998
2 60481  97.3764 250.5664 0002014 238.4144 121.6906 15.40294566102143
TOMORROW-S2             
1 60485U 24149T   26167.18762518  .00006718  00000+0  21496-3 0  9999
2 60485  97.3822 248.1507 0001266 268.8559  91.2538 15.32738900101931
FLOCK 4BE-36            
1 60486U 24149U   26167.20918312  .00012864  00000+0  29672-3 0  9991
2 60486  97.3749 251.6254 0002353 257.5031 102.5953 15.42697574102206
FLOCK 4BE-25            
1 60487U 24149V   26167.17742971  .00011474  00000+0  30100-3 0  9998
2 60487  97.3804 250.3206 0001226 222.9910 137.1240 15.38814793102080
FLOCK 4BE-31            
1 60488U 24149W   26167.17619440  .00016973  00000+0  37329-3 0  9992
2 60488  97.3803 252.4474 0001266 256.9567 103.1540 15.44057891102226
FLOCK 4BE-20            
1 60489U 24149X   26167.53073708  .00010918  00000+0  29381-3 0  9996
2 60489  97.3701 249.5571 0002501 252.3872 107.7100 15.38040214102115
FLOCK 4BE-23            
1 60490U 24149Y   26167.19543027  .00011015  00000+0  30014-3 0  9990
2 60490  97.3787 249.5964 0001989 263.8916  96.2102 15.37651236102049
FLOCK 4BE-15            
1 60491U 24149Z   26167.18868918  .00076671  00000+0  95872-3 0  9991
2 60491  97.3689 252.5311 0003027 240.8572 119.2381 15.59566831102279
FLOCK 4BE-17            
1 60492U 24149AA  26167.18096217  .00012854  00000+0  32669-3 0  9995
2 60492  97.3779 250.5419 0001995 240.1440 119.9607 15.39759167102100
NUSAT-50 (NANCY ROMAN)  
1 60493U 24149AB  26167.18730178  .00007818  00000+0  27308-3 0  9995
2 60493  97.3793 248.4498 0003367 176.8151 183.3112 15.29841839101976
FLOCK 4BE-22            
1 60494U 24149AC  26167.22834279  .00013745  00000+0  33362-3 0  9991
2 60494  97.3738 250.7799 0002331 258.8950 101.2034 15.41142714102157
FLOCK 4BE-34            
1 60495U 24149AD  26167.50520997  .00012642  00000+0  30710-3 0  9991
2 60495  97.3788 251.8812 0002161 271.2391  88.8608 15.41140204102227
TYCHE                   
1 60496U 24149AE  26167.54544157  .00003689  00000+0  14638-3 0  9992
2 60496  97.3757 245.3703 0000628 252.3904 107.7266 15.25983953101809
FLOCK 4BE-32            
1 60497U 24149AF  26167.21469595  .00013474  00000+0  31662-3 0  9998
2 60497  97.3727 251.1310 0002384 263.6017  96.4959 15.42127248102188
NUSAT-48 (HENRIETTA LE*)
1 60498U 24149AG  26167.50296731  .00007733  00000+0  27010-3 0  9994
2 60498  97.3925 249.0054 0002403 280.5427  79.5543 15.29850977102037
FLOCK 4BE-30            
1 60499U 24149AH  26167.48544395  .00114194  00000+0  16012-2 0  9993
2 60499  97.3780 252.9813 0004100 234.5246 125.5627 15.56356680101662
NUSAT-49 (KLARA DAN VO*)
1 60500U 24149AJ  26167.48107514  .00007329  00000+0  25547-3 0  9999
2 60500  97.3784 248.7732 0000989 345.2280  14.8932 15.29936428102025
FLOCK 4BE-11            
1 60501U 24149AK  26167.53406963  .00013189  00000+0  30150-3 0  9993
2 60501  97.3704 251.6834 0002517 261.6294  98.4669 15.42959623102256
YAM-7                   
1 60504U 24149AN  26167.46938171  .00006162  00000+0  20317-3 0  9996
2 60504  97.3786 247.7216 0001990 311.5328  48.5743 15.31811279101942
FLOCK 4BE-24            
1 60505U 24149AP  26167.19644309  .00016536  00000+0  37634-3 0  9990
2 60505  97.3723 251.5970 0002705 279.2650  80.8292 15.43040650102216
LUR-1                   
1 60506U 24149AQ  26167.45890527  .00005755  00000+0  20018-3 0  9994
2 60506  97.3742 246.2921 0002859 323.7303  36.3743 15.30098237101862
